CCSDS_OMM_VERS,COMMENT,CREATION_DATE,ORIGINATOR,OBJECT_NAME,OBJECT_ID,CENTER_NAME,REF_FRAME,TIME_SYSTEM,MEAN_ELEMENT_THEORY,EPOCH,MEAN_MOTION,ECCENTRICITY,INCLINATION,RA_OF_ASC_NODE,ARG_OF_PERICENTER,MEAN_ANOMALY,EPHEMERIS_TYPE,CLASSIFICATION_TYPE,NORAD_CAT_ID,ELEMENT_SET_NO,REV_AT_EPOCH,BSTAR,MEAN_MOTION_DOT,MEAN_MOTION_DDOT,SEMIMAJOR_AXIS,PERIOD,APOAPSIS,PERIAPSIS,OBJECT_TYPE,RCS_SIZE,COUNTRY_CODE,LAUNCH_DATE,SITE,DECAY_DATE,FILE,GP_ID,TLE_LINE0,TLE_LINE1,TLE_LINE2
"2.0","GENERATED VIA SPACE-TRACK.ORG API","2020-12-17T23:07:23","18 SPCS","HST","1990-037B","EARTH","TEME","UTC","SGP4","2020-12-17T06:11:44.918592","15.09512670","0.00025240","28.4684","190.4933","259.8650","263.5568","0","U","20580","999","48357","0.00002119300000","0.00000530","0.0000000000000","6915.825","95.395","539.435","535.944","PAYLOAD","LARGE","US","1990-04-24","AFETR","","2904594","167944245","0 HST","1 20580U 90037B   20352.25815878  .00000530  00000-0  21193-4 0  9998","2 20580  28.4684 190.4933 0002524 259.8650 263.5568 15.09512670483574"
"2.0","GENERATED VIA SPACE-TRACK.ORG API","2020-12-18T03:06:38","18 SPCS","HST","1990-037B","EARTH","TEME","UTC","SGP4","2020-12-17T13:32:52.729152","15.09512833","0.00025230","28.4684","188.4667","263.3126","128.1378","0","U","20580","999","48362","0.00002108600000","0.00000528","0.0000000000000","6915.824","95.395","539.434","535.944","PAYLOAD","LARGE","US","1990-04-24","AFETR","","2904758","167969795","0 HST","1 20580U 90037B   20352.56449918  .00000528  00000-0  21086-4 0  9998","2 20580  28.4684 188.4667 0002523 263.3126 128.1378 15.09512833483624"
"2.0","GENERATED VIA SPACE-TRACK.ORG API","2020-12-18T20:31:37","18 SPCS","HST","1990-037B","EARTH","TEME","UTC","SGP4","2020-12-18T05:59:44.740032","15.09513158","0.00025220","28.4684","183.9329","271.4181","251.6357","0","U","20580","999","48372","0.00001917100000","0.00000497","0.0000000000000","6915.823","95.394","539.432","535.944","PAYLOAD","LARGE","US","1990-04-24","AFETR","","2905225","168000151","0 HST","1 20580U 90037B   20353.24982338  .00000497  00000-0  19171-4 0  9999","2 20580  28.4684 183.9329 0002522 271.4181 251.6357 15.09513158483720"
"2.0","GENERATED VIA SPACE-TRACK.ORG API","2020-12-18T14:56:10","18 SPCS","HST","1990-037B","EARTH","TEME","UTC","SGP4","2020-12-18T05:59:44.740032","15.09513158","0.00025220","28.4684","183.9329","271.4181","251.6357","0","U","20580","999","48385","0.00001917100000","0.00000497","0.0000000000000","6915.823","95.394","539.432","535.944","PAYLOAD","LARGE","US","1990-04-24","AFETR","","2905179","167994557","0 HST","1 20580U 90037B   20353.24982338  .00000497  00000-0  19171-4 0  9999","2 20580  28.4684 183.9329 0002522 271.4181 251.6357 15.09513158483854"
"2.0","GENERATED VIA SPACE-TRACK.ORG API","2020-12-19T04:57:23","18 SPCS","HST","1990-037B","EARTH","TEME","UTC","SGP4","2020-12-18T21:46:03.871200","15.09513602","0.00025170","28.4683","179.5854","279.1209","222.2145","0","U","20580","999","48382","0.00001932600000","0.00000499","0.0000000000000","6915.822","95.394","539.427","535.946","PAYLOAD","LARGE","US","1990-04-24","AFETR","","2905541","168028209","0 HST","1 20580U 90037B   20353.90698925  .00000499  00000-0  19326-4 0  9992","2 20580  28.4683 179.5854 0002517 279.1209 222.2145 15.09513602483827"
"2.0","GENERATED VIA SPACE-TRACK.ORG API","2020-12-19T15:36:09","18 SPCS","HST","1990-037B","EARTH","TEME","UTC","SGP4","2020-12-19T14:50:52.204128","15.09513991","0.00025230","28.4683","174.8772","287.3315","129.0654","0","U","20580","999","48405","0.00001898000000","0.00000494","0.0000000000000","6915.821","95.394","539.430","535.941","PAYLOAD","LARGE","US","1990-04-24","AFETR","","2905944","168053277","0 HST","1 20580U 90037B   20354.61865977  .00000494  00000-0  18980-4 0  9994","2 20580  28.4683 174.8772 0002523 287.3315 129.0654 15.09513991484056"
"2.0","GENERATED VIA SPACE-TRACK.ORG API","2020-12-20T02:37:23","18 SPCS","HST","1990-037B","EARTH","TEME","UTC","SGP4","2020-12-19T21:35:16.196928","15.09514178","0.00025270","28.4683","173.0193","290.6585","214.8821","0","U","20580","999","48397","0.00001882300000","0.00000491","0.0000000000000","6915.820","95.394","539.433","535.937","PAYLOAD","LARGE","US","1990-04-24","AFETR","","2906183","168084964","0 HST","1 20580U 90037B   20354.89949302  .00000491  00000-0  18823-4 0  9992","2 20580  28.4683 173.0193 0002527 290.6585 214.8821 15.09514178483971"
"2.0","GENERATED VIA SPACE-TRACK.ORG API","2020-12-20T20:46:18","18 SPCS","HST","1990-037B","EARTH","TEME","UTC","SGP4","2020-12-20T13:04:07.411008","15.09514601","0.00025410","28.4683","168.7519","298.0605","119.7229","0","U","20580","999","48407","0.00001973200000","0.00000506","0.0000000000000","6915.819","95.394","539.441","535.926","PAYLOAD","LARGE","US","1990-04-24","AFETR","","2906543","168114786","0 HST","1 20580U 90037B   20355.54453022  .00000506  00000-0  19732-4 0  9991","2 20580  28.4683 168.7519 0002541 298.0605 119.7229 15.09514601484073"
"2.0","GENERATED VIA SPACE-TRACK.ORG API","2020-12-20T23:56:09","18 SPCS","HST","1990-037B","EARTH","TEME","UTC","SGP4","2020-12-20T21:15:26.347104","15.09514802","0.00025490","28.4684","166.4946","302.0787","173.5006","0","U","20580","999","48424","0.00001938800000","0.00000500","0.0000000000000","6915.818","95.394","539.446","535.920","PAYLOAD","LARGE","US","1990-04-24","AFETR","","2906757","168136209","0 HST","1 20580U 90037B   20355.88572161  .00000500  00000-0  19388-4 0  9995","2 20580  28.4684 166.4946 0002549 302.0787 173.5006 15.09514802484241"
"2.0","GENERATED VIA SPACE-TRACK.ORG API","2020-12-22T04:08:37","18 SPCS","HST","1990-037B","EARTH","TEME","UTC","SGP4","2020-12-21T21:04:12.230112","15.09515559","0.00025740","28.4684","159.9306","313.4571","164.6657","0","U","20580","999","48427","0.00002105400000","0.00000528","0.0000000000000","6915.816","95.394","539.461","535.901","PAYLOAD","LARGE","US","1990-04-24","AFETR","","2907352","168198147","0 HST","1 20580U 90037B   20356.87791933  .00000528  00000-0  21054-4 0  9998","2 20580  28.4684 159.9306 0002574 313.4571 164.6657 15.09515559484279"
"2.0","GENERATED VIA SPACE-TRACK.ORG API","2020-12-22T19:30:16","18 SPCS","HST","1990-037B","EARTH","TEME","UTC","SGP4","2020-12-22T03:37:02.708256","15.09515727","0.00025870","28.4685","158.1257","316.5496","207.0123","0","U","20580","999","48431","0.00002092800000","0.00000526","0.0000000000000","6915.815","95.394","539.469","535.891","PAYLOAD","LARGE","US","1990-04-24","AFETR","","2907836","168230600","0 HST","1 20580U 90037B   20357.15072579  .00000526  00000-0  20928-4 0  9995","2 20580  28.4685 158.1257 0002587 316.5496 207.0123 15.09515727484312"
"2.0","GENERATED VIA SPACE-TRACK.ORG API","2020-12-22T07:06:09","18 SPCS","HST","1990-037B","EARTH","TEME","UTC","SGP4","2020-12-22T03:37:02.708256","15.09515727","0.00025870","28.4685","158.1257","316.5496","207.0123","0","U","20580","999","48444","0.00002092800000","0.00000526","0.0000000000000","6915.815","95.394","539.469","535.891","PAYLOAD","LARGE","US","1990-04-24","AFETR","","2907560","168218956","0 HST","1 20580U 90037B   20357.15072579  .00000526  00000-0  20928-4 0  9995","2 20580  28.4685 158.1257 0002587 316.5496 207.0123 15.09515727484446"
"2.0","GENERATED VIA SPACE-TRACK.ORG API","2020-12-23T14:56:09","18 SPCS","HST","1990-037B","EARTH","TEME","UTC","SGP4","2020-12-23T12:26:34.644192","15.09517248","0.00026270","28.4687","149.0773","331.8564","79.0427","0","U","20580","999","48464","0.00002738300000","0.00000632","0.0000000000000","6915.811","95.394","539.492","535.859","PAYLOAD","LARGE","US","1990-04-24","AFETR","","2908415","168259897","0 HST","1 20580U 90037B   20358.51845653  .00000632  00000-0  27383-4 0  9997","2 20580  28.4687 149.0773 0002627 331.8564  79.0427 15.09517248484647"
"2.0","GENERATED VIA SPACE-TRACK.ORG API","2020-11-24T01:46:09","18 SPCS","BRO-1","2019-054A","EARTH","TEME","UTC","SGP4","2020-11-23T23:47:18.625056","15.08634508","0.00126860","45.0184","164.3437","339.2005","175.8066","0","U","44495","999","6986","0.00004585300000","0.00000481","0.0000000000000","6918.508","95.450","549.150","531.596","PAYLOAD","SMALL","FR","2019-08-19","RLLC","","2886391","166179037","0 BRO-1","1 44495U 19054A   20328.99118779  .00000481  00000-0  45853-4 0  9993","2 44495  45.0184 164.3437 0012686 339.2005 175.8066 15.08634508 69865"
"2.0","GENERATED VIA SPACE-TRACK.ORG API","2020-11-24T22:26:10","18 SPCS","BRO-1","2019-054A","EARTH","TEME","UTC","SGP4","2020-11-24T19:49:31.519200","15.08636824","0.00123400","45.0185","159.9176","342.7524","31.2078","0","U","44495","999","6999","0.00005664800000","0.00000653","0.0000000000000","6918.501","95.450","548.903","531.829","PAYLOAD","SMALL","FR","2019-08-19","RLLC","","2887391","166219975","0 BRO-1","1 44495U 19054A   20329.82605925  .00000653  00000-0  56648-4 0  9995","2 44495  45.0185 159.9176 0012340 342.7524  31.2078 15.08636824 69993"
"2.0","GENERATED VIA SPACE-TRACK.ORG API","2020-11-25T06:26:10","18 SPCS","BRO-1","2019-054A","EARTH","TEME","UTC","SGP4","2020-11-24T23:30:00.091872","15.08636904","0.00123020","45.0191","159.1066","343.2978","143.0670","0","U","44495","999","7001","0.00005445600000","0.00000618","0.0000000000000","6918.501","95.450","548.877","531.855","PAYLOAD","SMALL","FR","2019-08-19","RLLC","","2888005","166248805","0 BRO-1","1 44495U 19054A   20329.97916773  .00000618  00000-0  54456-4 0  9993","2 44495  45.0191 159.1066 0012302 343.2978 143.0670 15.08636904 70011"
"2.0","GENERATED VIA SPACE-TRACK.ORG API","2020-11-25T10:16:09","18 SPCS","BRO-1","2019-054A","EARTH","TEME","UTC","SGP4","2020-11-25T06:50:48.999840","15.08637845","0.00120130","45.0196","157.4846","343.7977","6.8645","0","U","44495","999","7005","0.00005737000000","0.00000665","0.0000000000000","6918.498","95.450","548.674","532.052","PAYLOAD","SMALL","FR","2019-08-19","RLLC","","2888194","166252725","0 BRO-1","1 44495U 19054A   20330.28528935  .00000665  00000-0  57370-4 0  9998","2 44495  45.0196 157.4846 0012013 343.7977   6.8645 15.08637845 70053"
